{
    "links": {
        "self": "http://www.neowsapp.com/rest/v1/neo/3869343?api_key=iIulBulltgU6a56xZRHN4H3l9WmuAYTsLGpBGhQ2"
    },
    "id": "3869343",
    "neo_reference_id": "3869343",
    "name": "(2019 SO6)",
    "designation": "2019 SO6",
    "nasa_jpl_url": "http://ssd.jpl.nasa.gov/sbdb.cgi?sstr=3869343",
    "absolute_magnitude_h": 25.4,
    "estimated_diameter": {
        "kilometers": {
            "estimated_diameter_min": 0.022108281,
            "estimated_diameter_max": 0.0494356193
        },
        "meters": {
            "estimated_diameter_min": 22.1082810359,
            "estimated_diameter_max": 49.435619262
        },
        "miles": {
            "estimated_diameter_min": 0.0137374447,
            "estimated_diameter_max": 0.0307178602
        },
        "feet": {
            "estimated_diameter_min": 72.5337327539,
            "estimated_diameter_max": 162.1903570994
        }
    },
    "is_potentially_hazardous_asteroid": false,
    "close_approach_data": [
        {
            "close_approach_date": "1965-04-13",
            "close_approach_date_full": "1965-Apr-13 08:18",
            "epoch_date_close_approach": -148923720000,
            "relative_velocity": {
                "kilometers_per_second": "8.1223723463",
                "kilometers_per_hour": "29240.5404467765",
                "miles_per_hour": "18168.9347014984"
            },
            "miss_distance": {
                "astronomical": "0.9016864297",
                "lunar": "350.7560211533",
                "kilometers": "134890369.291024739",
                "miles": "83816988.8320258382"
            },
            "orbiting_body": "Juptr"
        },
        {
            "close_approach_date": "2019-09-20",
            "close_approach_date_full": "2019-Sep-20 13:17",
            "epoch_date_close_approach": 1568985420000,
            "relative_velocity": {
                "kilometers_per_second": "28.6019790476",
                "kilometers_per_hour": "102967.1245714867",
                "miles_per_hour": "63979.7669316552"
            },
            "miss_distance": {
                "astronomical": "0.006216678",
                "lunar": "2.418287742",
                "kilometers": "930001.78727586",
                "miles": "577876.314132468"
            },
            "orbiting_body": "Earth"
        },
        {
            "close_approach_date": "2019-09-20",
            "close_approach_date_full": "2019-Sep-20 13:48",
            "epoch_date_close_approach": 1568987280000,
            "relative_velocity": {
                "kilometers_per_second": "29.5986743161",
                "kilometers_per_hour": "106555.2275377861",
                "miles_per_hour": "66209.274577576"
            },
            "miss_distance": {
                "astronomical": "0.008547192",
                "lunar": "3.324857688",
                "kilometers": "1278641.71768104",
                "miles": "794511.121396752"
            },
            "orbiting_body": "Moon"
        },
        {
            "close_approach_date": "2024-08-07",
            "close_approach_date_full": "2024-Aug-07 18:01",
            "epoch_date_close_approach": 1723053660000,
            "relative_velocity": {
                "kilometers_per_second": "8.1293615937",
                "kilometers_per_hour": "29265.7017373675",
                "miles_per_hour": "18184.568948977"
            },
            "miss_distance": {
                "astronomical": "0.9319460681",
                "lunar": "362.5270204909",
                "kilometers": "139417146.742634947",
                "miles": "86629797.9087663886"
            },
            "orbiting_body": "Juptr"
        }
    ],
    "orbital_data": {
        "orbit_id": "5",
        "orbit_determination_date": "2020-01-10 05:23:54",
        "first_observation_date": "2019-09-26",
        "last_observation_date": "2019-10-06",
        "data_arc_in_days": 10,
        "observations_used": 23,
        "orbit_uncertainty": "9",
        "minimum_orbit_intersection": ".00278106",
        "jupiter_tisserand_invariant": "2.981",
        "epoch_osculation": "2458753.5",
        "eccentricity": ".8330838769066118",
        "semi_major_axis": "2.320220683218499",
        "inclination": "1.105959634022492",
        "ascending_node_longitude": "5.004308099982111",
        "orbital_period": "1290.899307270938",
        "perihelion_distance": ".3872822411639242",
        "perihelion_argument": "241.1454512135882",
        "aphelion_distance": "4.253159125273073",
        "perihelion_time": "2458703.601553066298",
        "mean_anomaly": "13.91544700268593",
        "mean_motion": ".2788753529979562",
        "equinox": "J2000",
        "orbit_class": {
            "orbit_class_type": "APO",
            "orbit_class_description": "Near-Earth asteroid orbits which cross the Earth’s orbit similar to that of 1862 Apollo",
            "orbit_class_range": "a (semi-major axis) > 1.0 AU; q (perihelion) < 1.017 AU"
        }
    },
    "is_sentry_object": false
}